ONEWEB-0258             
1 48976U 21060K   24362.48982104  .00000013  00000+0  72737-7 0  9992
2 48976  87.9093 335.7274 0001781  86.8174 273.3161 13.16596061168976
ONEWEB-0259             
1 48977U 21060L   24362.48349694  .00000082  00000+0  18096-3 0  9994
2 48977  87.9093 335.7132 0001692  92.6449 267.4875 13.16594968169006
ONEWEB-0260             
1 48978U 21060M   24362.47479214  .00000110  00000+0  25441-3 0  9990
2 48978  87.9094 335.7445 0001829  67.0773 293.0551 13.16593998168987
ONEWEB-0261             
1 48979U 21060N   24362.44467795 -.00000346  00000+0 -93760-3 0  9991
2 48979  87.9093 335.7490 0001303  76.8605 283.2672 13.16594209169034
ONEWEB-0262             
1 48980U 21060P   24362.42491163  .00000024  00000+0  29171-4 0  9994
2 48980  87.9091 335.7115 0001704  95.3964 264.7361 13.16595103168994
ONEWEB-0263             
1 48981U 21060Q   24362.45656598  .00000165  00000+0  39795-3 0  9991
2 48981  87.9095 335.7276 0001360  88.7308 271.3979 13.16596312168962
ONEWEB-0264             
1 48982U 21060R   24362.49377996  .00000052  00000+0  10309-3 0  9993
2 48982  87.9094 335.7299 0001709  84.2022 275.9303 13.16595583168979
ONEWEB-0266             
1 48984U 21060T   24362.43917282  .00000924  00000+0  23826-2 0  9992
2 48984  87.9093 335.7134 0001843  89.7036 270.4306 13.16591497168953
